#dP2024 11 27 18  0  0.00000000      96 __u+U IGS20 EXT  IAC
## 2342 324000.00000000   900.00000000 60641 0.7500000000000
+   52   G02G03G04G05G06G07G08G09G10G11G12G13G14G15G16G17G18
+        G19G20G21G22G23G24G25G26G27G28G29G30G31G32R01R02R03
+        R04R05R07R08R09R11R12R14R15R16R17R18R19R20R21R22R24
+        R26  0  0  0  0  0  0  0  0  0  0  0  0  0  0  0  0
+          0  0  0  0  0  0  0  0  0  0  0  0  0  0  0  0  0
++         7  7  7  6 10  6  6  8  7  8  8  8  7  7  6  6  7
++         7  7  7  7 10  7  8  7 11  6  7  6  6  7  8  8  6
++         9  9  9  8  9  8  9  6  9  8  8  8  7  9  9  9  8
++        10  0  0  0  0  0  0  0  0  0  0  0  0  0  0  0  0
++         0  0  0  0  0  0  0  0  0  0  0  0  0  0  0  0  0
%c M  cc GPS ccc cccc cccc cccc cccc ccccc ccccc ccccc ccccc
%c cc cc ccc ccc cccc cccc cccc cccc ccccc ccccc ccccc ccccc
%f  0.0000000  0.000000000  0.00000000000  0.000000000000000
%f  0.0000000  0.000000000  0.00000000000  0.000000000000000
%i    0    0    0    0      0      0      0      0         0
%i    0    0    0    0      0      0      0      0         0
/* IAC                                ULTRA-RAPID PREDICTION
/* S/V CLOCKS ARE ALIGNED TO GNSS TIME                      
/* G:C1WC2W R:C1PC2P E:C1XC5X C:C2IC6I J:C1CC2S             
/* PCV:IGS20_2317 OL/AL:FES2004  NONE     YN ORB:CoN CLK:CoN
*  2024 11 28 16 30  0.00000000
PG02 -22998.185126 -13674.420978    950.829976   -304.229707
PG03 -12602.847484 -10166.067005  20913.104058    611.736232
PG04 -21587.422996  -3038.309587  15291.636031    487.143400
PG05   6170.820783  23134.803677 -11603.656678   -194.397763
PG06  -5668.862646  13902.849394  21970.524690     -3.446427
PG07 -21833.940125  -3465.621966 -14505.845281    -17.745816
PG08 -12581.605436 -10675.182010 -21014.725274    425.440185
PG09 -24856.227701   5432.594912   7645.385214    464.059169
PG10  10254.249448 -21403.018290 -11338.740019   -213.394001
PG11   7426.593120  20204.963885  15636.046231   -751.655380
PG12  10626.665729  14871.506583  19004.366428   -555.026284
PG13   3076.169635  14767.794815 -22089.289873    687.889520
PG14 -12949.328404  18218.306062 -14123.043786    549.339550
PG15  14043.403619   9431.445795 -21028.905061    233.222369
PG16   -352.611836 -25197.596264  -7966.835981   -116.726137
PG17 -21335.282198  13805.949729   8474.131460    540.836419
PG18  20404.639622   1281.306934 -17048.136780   -660.594177
PG19 -13378.567900  15837.131759  16206.941568    568.001476
PG20    980.794195  26611.131096    775.983991    368.345412
PG21 -20503.166562 -16891.753475  -5168.911300     96.330057
PG22  -9813.777444  23867.736735  -6537.813530    -82.749548
PG23  14510.151605  -8632.494398 -20401.087975    372.688423
PG24  21880.041937  15325.508525  -2361.147690   -477.400715
PG25  15340.909273    -65.496580  21318.265630    498.634718
PG26   4265.568894 -25587.547106   4466.592631     10.316418
PG27   -611.263147 -16072.897997 -21367.534891    -34.543399
PG28   7539.539295 -13259.738844  21729.133034   -492.771210
PG29  25245.282407  -2778.744410   7945.542497   -560.236614
PG30 -14784.212834   7841.792765 -20526.836267   -272.498216
PG31  -2639.824864 -18648.016253  18332.518920   -220.958283
PG32  18173.067621 -16095.898054  10751.387793   -567.182085
PR01  18596.111187  -8476.073452 -15269.598000    105.919917
PR02  18314.523706 -17668.160130   1054.407399    -39.374774
PR03   7099.829816 -17664.985700  16983.299292    112.229790
PR04  -7208.234343  -7880.741720  23190.335028    266.068453
PR05 -18017.956115   5922.060133  17081.719431    141.393390
PR07  -6924.357368  17567.426767 -17143.003779     95.883021
PR08   7498.822341   7723.766161 -23067.547051     -6.223408
PR09  -6110.236635  14761.107762 -19841.578843    223.141682
PR11   9976.883731  21546.969571   9304.297268      5.939572
PR12  11982.519721   4281.659871  22129.142097     47.760392
PR14  -3025.206575 -24502.886873   6459.773074     27.271970
PR15 -10434.465844 -20578.634082 -10870.294817     73.657989
PR16 -11874.936903  -4496.014617 -22124.635268     31.143878
PR17  -3981.130226 -11870.438452 -22199.874568    143.880233
PR18 -18997.809011 -11854.521852 -12234.857622    174.115069
PR19 -24271.072458  -7544.042677   2122.063082   -300.063606
PR20 -15232.329024   4138.099330  20066.526142   -122.542691
PR21   2838.328657  11640.206497  22531.009292   -155.141002
PR22  19426.581876  12230.085836  11145.218635    -24.465728
PR24  14704.719273  -5513.065559 -20082.427433    -81.959720
PR26   6119.748859   9016.357017 -23044.338302   -133.222676
*  2024 11 28 16 45  0.00000000
PG02 -22801.036525 -13805.268483  -1894.228227   -304.221910
PG03 -12312.165852 -12503.202091  19808.421211    611.744928
PG04 -19941.704222  -3896.948318  17200.111259    487.149080
PG05   5930.917452  24284.603284  -9056.065140   -194.398943
PG06  -7705.044205  12440.670662  22236.758126     -3.473308
PG07 -23023.488148  -4558.520677 -12318.045730    -17.744188
PG08 -10454.146731 -11800.427460 -21535.210620    425.448856
PG09 -24033.217009   4765.415762  10242.094526    464.074259
PG10  10291.592345 -19917.375227 -13742.618974   -213.407449
PG11   5842.608703  19169.710764  17499.374562   -751.656316
PG12  10151.775613  16961.242207  17479.555276   -555.028547
PG13    711.937209  15445.713263 -21802.941882    687.890886
PG14 -12981.844524  16453.161308 -16132.678679    549.346630
PG15  12134.835200  10777.650081 -21563.508739    233.226418
PG16     40.960240 -25862.154478  -5219.699870   -116.717371
PG17 -22119.088429  13892.334094   5773.765619    540.822720
PG18  21803.301791   2474.281940 -15095.912766   -660.594200
PG19 -15122.540245  16221.663231  14144.083776    568.005370
PG20    705.293779  26394.332921   3600.670443    368.345105
PG21 -19751.955776 -16658.080675  -7834.501256     96.329180
PG22  -9867.029427  22902.660364  -9181.855804    -82.752015
PG23  14430.819220  -6237.486753 -21327.946942    372.695476
PG24  21411.529814  15397.100971  -5096.505248   -477.398401
PG25  15175.372526   2447.927038  21320.160615    498.634413
PG26   4623.183053 -24889.641759   7174.181603     10.304287
PG27   1544.170128 -17001.126520 -20537.019101    -34.543194
PG28   9616.577221 -11890.002452  21702.196452   -492.781394
PG29  24325.606697  -2216.127238  10540.795310   -560.233921
PG30 -16635.349857   6424.983120 -19612.509134   -272.491099
PG31   -752.477342 -17443.120458  19661.565717   -220.957683
PG32  19230.160115 -16340.431862   8163.352789   -567.177028
PR01  17139.854724  -7067.501648 -17523.904871    105.920988
PR02  18141.687305 -17736.490394  -2174.956901    -39.374642
PR03   8382.226913 -19133.693987  14634.003173    112.230441
PR04  -5197.475485  -9890.522494  22954.782809    266.070218
PR05 -16346.572576   4439.544099  19092.357494    141.393919
PR07  -8229.166979  19059.456181 -14825.556981     95.883771
PR08   5502.267154   9756.784845 -22863.108860     -6.223373
PR09  -6835.158607  12328.737344 -21223.423442    223.143660
PR11  10373.248867  22433.273246   6281.955939      5.938888
PR12  12746.283960   6827.952560  21036.467732     47.760831
PR14  -2858.209929 -23530.570521   9456.712811     27.271815
PR15 -10862.057056 -21666.450199  -7949.557067     73.657837
PR16 -12655.854783  -7041.142769 -21002.703724     31.144174
PR17  -1296.016043 -11111.916936 -22903.634063    143.883238
PR18 -17429.032068 -11241.639975 -14858.163178    174.116793
PR19 -24393.984881  -7356.852790  -1121.463474   -300.064742
PR20 -17520.999037   3541.074817  18230.317462   -122.543289
PR21    134.612805  10852.911694  23093.006570   -155.143849
PR22  17992.237286  11664.759041  13841.268446    -24.476591
PR24  17020.584552  -4983.543804 -18317.910026    -81.961069
PR26   4163.452804  11049.847996 -22590.178419   -133.222392
EOF
